COMMENT,ORIGINATOR,NORAD_CAT_ID,OBJECT_NAME,OBJECT_TYPE,CLASSIFICATION_TYPE,INTLDES,EPOCH,EPOCH_MICROSECONDS,MEAN_MOTION,ECCENTRICITY,INCLINATION,RA_OF_ASC_NODE,ARG_OF_PERICENTER,MEAN_ANOMALY,EPHEMERIS_TYPE,ELEMENT_SET_NO,REV_AT_EPOCH,BSTAR,MEAN_MOTION_DOT,MEAN_MOTION_DDOT,FILE,TLE_LINE0,TLE_LINE1,TLE_LINE2,OBJECT_ID,OBJECT_NUMBER,SEMIMAJOR_AXIS,PERIOD,APOGEE,PERIGEE,DECAYED,date
GENERATED VIA SPACETRACK.ORG API,18 SPCS,48888,SPACEBEE-103,PAYLOAD,U,21059K,2023/3/27 8:44,125376,15.26326309,0.0008081,97.5835,221.7106,200.3362,159.7556,0,999,9689,0.0014637,0.00038122,0,3872569,0 SPACEBEE-103,1 48888U 21059K   23086.36389034  .00038122  00000-0  14637-2 0  9997,2 48888  97.5835 221.7106 0008081 200.3362 159.7556 15.26326309 96894,2021-059K,48888,6864.943,94.344,492.355,481.26,0,
GENERATED VIA SPACETRACK.ORG API,18 SPCS,48888,SPACEBEE-103,PAYLOAD,U,21059K,2023/3/27 21:19,707840,15.2636655,0.0008101,97.5835,222.243,198.9806,161.1131,0,999,9697,0.0013898,0.00036229,0,3872915,0 SPACEBEE-103,1 48888U 21059K   23086.88835310  .00036229  00000-0  13898-2 0  9991,2 48888  97.5835 222.2430 0008101 198.9806 161.1131 15.26366550 96975,2021-059K,48888,6864.822,94.342,492.248,481.126,0,
GENERATED VIA SPACETRACK.ORG API,18 SPCS,48888,SPACEBEE-103,PAYLOAD,U,21059K,2023/3/28 8:20,108832,15.26403461,0.0008108,97.5833,222.7089,197.7894,162.3061,0,999,9704,0.0014867,0.00038817,0,3873565,0 SPACEBEE-103,1 48888U 21059K   23087.34724663  .00038817  00000-0  14867-2 0  9993,2 48888  97.5833 222.7089 0008108 197.7894 162.3061 15.26403461 97046,2021-059K,48888,6864.711,94.339,492.142,481.01,0,
GENERATED VIA SPACETRACK.ORG API,18 SPCS,48888,SPACEBEE-103,PAYLOAD,U,21059K,2023/3/28 14:37,918560,15.26424777,0.0008096,97.5831,222.9751,196.6126,163.4848,0,999,9708,0.0015337,0.00040078,0,3873465,0 SPACEBEE-103,1 48888U 21059K   23087.60946665  .00040078  00000-0  15337-2 0  9995,2 48888  97.5831 222.9751 0008096 196.6126 163.4848 15.26424777 97086,2021-059K,48888,6864.647,94.338,492.07,480.955,0,
GENERATED VIA SPACETRACK.ORG API,18 SPCS,48888,SPACEBEE-103,PAYLOAD,U,21059K,2023/3/28 14:37,918560,15.26424777,0.0008096,97.5831,222.9751,196.6126,163.4848,0,999,9708,0.0015337,0.00040078,0,3873921,0 SPACEBEE-103,1 48888U 21059K   23087.60946665  .00040078  00000-0  15337-2 0  9995,2 48888  97.5831 222.9751 0008096 196.6126 163.4848 15.26424777 97086,2021-059K,48888,6864.647,94.338,492.07,480.955,0,
GENERATED VIA SPACETRACK.ORG API,18 SPCS,48888,SPACEBEE-103,PAYLOAD,U,21059K,2023/3/29 7:55,621952,15.26489017,0.0008095,97.5829,223.7072,195.0954,165.0044,0,999,9719,0.001674,0.00043858,0,3874492,0 SPACEBEE-103,1 48888U 21059K   23088.33055118  .00043858  00000-0  16740-2 0  9998,2 48888  97.5829 223.7072 0008095 195.0954 165.0044 15.26489017 97195,2021-059K,48888,6864.455,94.334,491.877,480.763,0,
GENERATED VIA SPACETRACK.ORG API,18 SPCS,48888,SPACEBEE-103,PAYLOAD,U,21059K,2023/3/29 20:31,291712,15.2653873,0.0008032,97.5831,224.2397,193.6215,166.4808,0,999,9727,0.0017568,0.00046114,0,3874706,0 SPACEBEE-103,1 48888U 21059K   23088.85495708  .00046114  00000-0  17568-2 0  9995,2 48888  97.5831 224.2397 0008032 193.6215 166.4808 15.26538730 97278,2021-059K,48888,6864.306,94.331,491.684,480.657,0,
GENERATED VIA SPACETRACK.ORG API,18 SPCS,48888,SPACEBEE-103,PAYLOAD,U,21059K,2023/3/29 20:31,291712,15.2653873,0.0008032,97.5831,224.2397,193.6215,166.4808,0,999,9727,0.0017568,0.00046114,0,3874790,0 SPACEBEE-103,1 48888U 21059K   23088.85495708  .00046114  00000-0  17568-2 0  9995,2 48888  97.5831 224.2397 0008032 193.6215 166.4808 15.26538730 97278,2021-059K,48888,6864.306,94.331,491.684,480.657,0,
GENERATED VIA SPACETRACK.ORG API,18 SPCS,48888,SPACEBEE-103,PAYLOAD,U,21059K,2023/3/30 7:31,212000,15.26579757,0.0008034,97.5829,224.7056,192.0643,168.0404,0,999,9734,0.0017334,0.00045551,0,3875726,0 SPACEBEE-103,1 48888U 21059K   23089.31379875  .00045551  00000-0  17334-2 0  9998,2 48888  97.5829 224.7056 0008034 192.0643 168.0404 15.26579757 97344,2021-059K,48888,6864.183,94.329,491.563,480.533,0,
GENERATED VIA SPACETRACK.ORG API,18 SPCS,48888,SPACEBEE-103,PAYLOAD,U,21059K,2023/3/31 2:24,609792,15.26657333,0.0008055,97.5832,225.5044,188.3269,171.7837,0,999,9746,0.0019555,0.00051559,0,3875967,0 SPACEBEE-103,1 48888U 21059K   23090.10035428  .00051559  00000-0  19555-2 0  9992,2 48888  97.5832 225.5044 0008055 188.3269 171.7837 15.26657333 97460,2021-059K,48888,6863.95,94.324,491.344,480.286,0,
GENERATED VIA SPACETRACK.ORG API,18 SPCS,48888,SPACEBEE-103,PAYLOAD,U,21059K,2023/4/1 3:34,465888,15.26753765,0.0008056,97.5831,226.5694,185.3871,174.7282,0,999,9762,0.0017037,0.00045002,0,3876857,0 SPACEBEE-103,1 48888U 21059K   23091.14903317  .00045002  00000-0  17037-2 0  9997,2 48888  97.5831 226.5694 0008056 185.3871 174.7282 15.26753765 97629,2021-059K,48888,6863.661,94.318,491.056,479.997,0,
GENERATED VIA SPACETRACK.ORG API,18 SPCS,48888,SPACEBEE-103,PAYLOAD,U,21059K,2023/4/1 8:17,488320,15.26770203,0.0008036,97.5831,226.7691,184.7605,175.3558,0,999,9765,0.001671,0.00044154,0,3877270,0 SPACEBEE-103,1 48888U 21059K   23091.34565380  .00044154  00000-0  16710-2 0  9997,2 48888  97.5831 226.7691 0008036 184.7605 175.3558 15.26770203 97656,2021-059K,48888,6863.612,94.317,490.993,479.961,0,
GENERATED VIA SPACETRACK.ORG API,18 SPCS,48888,SPACEBEE-103,PAYLOAD,U,21059K,2023/4/2 7:53,916896,15.26851644,0.0008011,97.5832,227.7678,181.9733,178.1476,0,999,9780,0.0017243,0.00045686,0,3877765,0 SPACEBEE-103,1 48888U 21059K   23092.32872589  .00045686  00000-0  17243-2 0  9991,2 48888  97.5832 227.7678 0008011 181.9733 178.1476 15.26851644 97803,2021-059K,48888,6863.368,94.312,490.731,479.735,0,
GENERATED VIA SPACETRACK.ORG API,18 SPCS,48888,SPACEBEE-103,PAYLOAD,U,21059K,2023/4/2 14:10,119616,15.26871526,0.0008038,97.5832,228.0341,181.0814,179.0408,0,999,9784,0.001631,0.00043222,0,3878126,0 SPACEBEE-103,1 48888U 21059K   23092.59086944  .00043222  00000-0  16310-2 0  9990,2 48888  97.5832 228.0341 0008038 181.0814 179.0408 15.26871526 97844,2021-059K,48888,6863.308,94.31,490.69,479.657,0,
GENERATED VIA SPACETRACK.ORG API,18 SPCS,48888,SPACEBEE-103,PAYLOAD,U,21059K,2023/4/2 22:02,160992,15.26894824,0.0008032,97.5833,228.3671,179.8423,180.2819,0,999,9789,0.0013635,0.00036112,0,3878419,0 SPACEBEE-103,1 48888U 21059K   23092.91854353  .00036112  00000-0  13635-2 0  9990,2 48888  97.5833 228.3671 0008032 179.8423 180.2819 15.26894824 97890,2021-059K,48888,6863.239,94.309,490.616,479.591,0,
GENERATED VIA SPACETRACK.ORG API,18 SPCS,48888,SPACEBEE-103,PAYLOAD,U,21059K,2023/4/3 2:45,564288,15.26910065,0.0007993,97.5835,228.5668,179.1632,180.9621,0,999,9792,0.0013819,0.00036619,0,3878647,0 SPACEBEE-103,1 48888U 21059K   23093.11514542  .00036619  00000-0  13819-2 0  9992,2 48888  97.5835 228.5668 0007993 179.1632 180.9621 15.26910065 97928,2021-059K,48888,6863.193,94.308,490.544,479.572,0,
GENERATED VIA SPACETRACK.ORG API,18 SPCS,48888,SPACEBEE-103,PAYLOAD,U,21059K,2023/4/3 7:28,773184,15.26930666,0.0007979,97.5835,228.7664,178.4644,181.6621,0,999,9795,0.0015701,0.0004167,0,3879059,0 SPACEBEE-103,1 48888U 21059K   23093.31174506  .00041670  00000-0  15701-2 0  9991,2 48888  97.5835 228.7664 0007979 178.4644 181.6621 15.26930666 97955,2021-059K,48888,6863.131,94.307,490.472,479.52,0,
GENERATED VIA SPACETRACK.ORG API,18 SPCS,48888,SPACEBEE-103,PAYLOAD,U,21059K,2023/4/4 7:04,206656,15.27011523,0.0007994,97.5839,229.765,175.0247,185.1072,0,999,9810,0.0016252,0.0004325,0,3879599,0 SPACEBEE-103,1 48888U 21059K   23094.29471304  .00043250  00000-0  16252-2 0  9993,2 48888  97.5839 229.7650 0007994 175.0247 185.1072 15.27011523 98104,2021-059K,48888,6862.889,94.302,490.24,479.268,0,
GENERATED VIA SPACETRACK.ORG API,18 SPCS,48888,SPACEBEE-103,PAYLOAD,U,21059K,2023/4/4 8:38,939040,15.27017053,0.0007989,97.584,229.8315,174.7951,185.3372,0,999,9811,0.0016107,0.00042869,0,3879974,0 SPACEBEE-103,1 48888U 21059K   23094.36024235  .00042869  00000-0  16107-2 0  9992,2 48888  97.5840 229.8315 0007989 174.7951 185.3372 15.27017053 98117,2021-059K,48888,6862.872,94.302,490.22,479.255,0,
GENERATED VIA SPACETRACK.ORG API,18 SPCS,48888,SPACEBEE-103,PAYLOAD,U,21059K,2023/4/4 21:13,97408,15.27055131,0.0007991,97.5842,230.3642,173.503,186.6313,0,999,9819,0.0013368,0.00035572,0,3880211,0 SPACEBEE-103,1 48888U 21059K   23094.88446872  .00035572  00000-0  13368-2 0  9993,2 48888  97.5842 230.3642 0007991 173.5030 186.6313 15.27055131 98193,2021-059K,48888,6862.758,94.299,490.107,479.139,0,
GENERATED VIA SPACETRACK.ORG API,18 SPCS,48888,SPACEBEE-103,PAYLOAD,U,21059K,2023/4/5 8:14,656800,15.27092155,0.0007965,97.5843,230.8303,172.0626,188.074,0,999,9826,0.0014635,0.00039012,0,3880841,0 SPACEBEE-103,1 48888U 21059K   23095.34315575  .00039012  00000-0  14635-2 0  9991,2 48888  97.5843 230.8303 0007965 172.0626 188.0740 15.27092155 98264,2021-059K,48888,6862.647,94.297,489.978,479.046,0,
GENERATED VIA SPACETRACK.ORG API,18 SPCS,48888,SPACEBEE-103,PAYLOAD,U,21059K,2023/4/5 8:14,656800,15.27092155,0.0007965,97.5843,230.8303,172.0626,188.074,0,999,9826,0.0014635,0.00039012,0,3880853,0 SPACEBEE-103,1 48888U 21059K   23095.34315575  .00039012  00000-0  14635-2 0  9991,2 48888  97.5843 230.8303 0007965 172.0626 188.0740 15.27092155 98264,2021-059K,48888,6862.647,94.297,489.978,479.046,0,
GENERATED VIA SPACETRACK.ORG API,18 SPCS,48888,SPACEBEE-103,PAYLOAD,U,21059K,2023/4/5 20:48,592096,15.27132672,0.0007948,97.5845,231.363,170.5279,189.6111,0,999,9834,0.0014394,0.00038412,0,3881153,0 SPACEBEE-103,1 48888U 21059K   23095.86735639  .00038412  00000-0  14394-2 0  9990,2 48888  97.5845 231.3630 0007948 170.5279 189.6111 15.27132672 98340,2021-059K,48888,6862.526,94.294,489.845,478.937,0,
